STARLINK-36799          
1 67958U 26037AC  26069.25002315  .00035321  00000+0  16972-3 0  9995
2 67958  42.9986 194.8622 0001695 255.1580  82.6637 15.81998622  3280
STARLINK-36834          
1 67959U 26037AD  26069.25002315  .00102389  00000+0  48407-3 0  9993
2 67959  42.9988 194.8404 0001612 258.1291  88.2456 15.81970321  3289
STARLINK-36841          
1 67960U 26037AE  26069.25002315  .00086080  00000+0  40823-3 0  9998
2 67960  42.9987 194.8510 0001728 259.0160  83.0951 15.81965408  3284
STARLINK-36912          
1 67961U 26038A   26069.25002315 -.01613634  00000+0 -76523-2 0  9999
2 67961  97.2745  79.5582 0001133  91.9201 259.2438 15.85679701  3286
STARLINK-36881          
1 67962U 26038B   26069.25002315 -.01612982  00000+0 -76133-2 0  9992
2 67962  97.2745  79.5595 0001180  86.3373 268.1118 15.85774578  3283
STARLINK-36357          
1 67963U 26038C   26069.25002315 -.01615107  00000+0 -75207-2 0  9996
2 67963  97.2740  79.5634 0001119  93.5861 269.9718 15.86057305  3285
STARLINK-36349          
1 67964U 26038D   26069.25002315 -.01616085  00000+0 -75766-2 0  9993
2 67964  97.2738  79.5609 0001171  79.7860 279.2109 15.85918902  3284
STARLINK-36806          
1 67965U 26038E   26069.25002315 -.01610843  00000+0 -74394-2 0  9996
2 67965  97.2730  79.5651 0001140  89.7168 279.1503 15.86217442  3281
STARLINK-36820          
1 67966U 26038F   26069.25002315 -.01610304  00000+0 -73875-2 0  9992
2 67966  97.2729  79.5671 0001158  91.2408 282.0572 15.86352325  3285
STARLINK-36819          
1 67967U 26038G   26069.25002315 -.01609766  00000+0 -73315-2 0  9992
2 67967  97.2726  79.5691 0001132  88.1068 289.9675 15.86500177  3284
STARLINK-36812          
1 67968U 26038H   26069.25002315 -.01608868  00000+0 -72829-2 0  9994
2 67968  97.2721  79.5702 0001135  83.1736 298.9581 15.86622757  3288
STARLINK-36709          
1 67969U 26038J   26069.25002315 -.01598303  00000+0 -71248-2 0  9991
2 67969  97.2720  79.5747 0001099  87.4948 304.4351 15.86916212  3288
