CCSDS_OMM_VERS = 2.0
CREATION_DATE  = 
ORIGINATOR     = 

OBJECT_NAME    = STARLINK-36799
OBJECT_ID      = 2026-037AC
CENTER_NAME    = EARTH
REF_FRAME      = TEME
TIME_SYSTEM    = UTC
MEAN_ELEMENT_THEORY = SGP/SGP4

EPOCH          = 2026-03-10T06:00:02.000160
MEAN_MOTION    = 15.81998622
ECCENTRICITY   = .00016954
INCLINATION    = 42.9986
RA_OF_ASC_NODE = 194.8622
ARG_OF_PERICENTER = 255.1580
MEAN_ANOMALY   = 82.6637

EPHEMERIS_TYPE = 0
CLASSIFICATION_TYPE = U
NORAD_CAT_ID   = 67958
ELEMENT_SET_NO = 999
REV_AT_EPOCH   = 328
BSTAR          = .16971991E-3
MEAN_MOTION_DOT = .35321E-3
MEAN_MOTION_DDOT = 0

CCSDS_OMM_VERS = 2.0
CREATION_DATE  = 
ORIGINATOR     = 

OBJECT_NAME    = STARLINK-36834
OBJECT_ID      = 2026-037AD
CENTER_NAME    = EARTH
REF_FRAME      = TEME
TIME_SYSTEM    = UTC
MEAN_ELEMENT_THEORY = SGP/SGP4

EPOCH          = 2026-03-10T06:00:02.000160
MEAN_MOTION    = 15.81970321
ECCENTRICITY   = .00016128
INCLINATION    = 42.9988
RA_OF_ASC_NODE = 194.8404
ARG_OF_PERICENTER = 258.1291
MEAN_ANOMALY   = 88.2456

EPHEMERIS_TYPE = 0
CLASSIFICATION_TYPE = U
NORAD_CAT_ID   = 67959
ELEMENT_SET_NO = 999
REV_AT_EPOCH   = 328
BSTAR          = .48407387E-3
MEAN_MOTION_DOT = .102389E-2
MEAN_MOTION_DDOT = 0

CCSDS_OMM_VERS = 2.0
CREATION_DATE  = 
ORIGINATOR     = 

OBJECT_NAME    = STARLINK-36841
OBJECT_ID      = 2026-037AE
CENTER_NAME    = EARTH
REF_FRAME      = TEME
TIME_SYSTEM    = UTC
MEAN_ELEMENT_THEORY = SGP/SGP4

EPOCH          = 2026-03-10T06:00:02.000160
MEAN_MOTION    = 15.81965408
ECCENTRICITY   = .00017282
INCLINATION    = 42.9987
RA_OF_ASC_NODE = 194.8510
ARG_OF_PERICENTER = 259.0160
MEAN_ANOMALY   = 83.0951

EPHEMERIS_TYPE = 0
CLASSIFICATION_TYPE = U
NORAD_CAT_ID   = 67960
ELEMENT_SET_NO = 999
REV_AT_EPOCH   = 328
BSTAR          = .40822737E-3
MEAN_MOTION_DOT = .8608E-3
MEAN_MOTION_DDOT = 0

CCSDS_OMM_VERS = 2.0
CREATION_DATE  = 
ORIGINATOR     = 

OBJECT_NAME    = STARLINK-36912
OBJECT_ID      = 2026-038A
CENTER_NAME    = EARTH
REF_FRAME      = TEME
TIME_SYSTEM    = UTC
MEAN_ELEMENT_THEORY = SGP/SGP4

EPOCH          = 2026-03-10T06:00:02.000160
MEAN_MOTION    = 15.85679701
ECCENTRICITY   = .00011338
INCLINATION    = 97.2745
RA_OF_ASC_NODE = 79.5582
ARG_OF_PERICENTER = 91.9201
MEAN_ANOMALY   = 259.2438

EPHEMERIS_TYPE = 0
CLASSIFICATION_TYPE = U
NORAD_CAT_ID   = 67961
ELEMENT_SET_NO = 999
REV_AT_EPOCH   = 328
BSTAR          = -.76523071E-2
MEAN_MOTION_DOT = -.1613634E-1
MEAN_MOTION_DDOT = 0

CCSDS_OMM_VERS = 2.0
CREATION_DATE  = 
ORIGINATOR     = 

OBJECT_NAME    = STARLINK-36881
OBJECT_ID      = 2026-038B
CENTER_NAME    = EARTH
REF_FRAME      = TEME
TIME_SYSTEM    = UTC
MEAN_ELEMENT_THEORY = SGP/SGP4

EPOCH          = 2026-03-10T06:00:02.000160
MEAN_MOTION    = 15.85774578
ECCENTRICITY   = .00011802
INCLINATION    = 97.2745
RA_OF_ASC_NODE = 79.5595
ARG_OF_PERICENTER = 86.3373
MEAN_ANOMALY   = 268.1118

EPHEMERIS_TYPE = 0
CLASSIFICATION_TYPE = U
NORAD_CAT_ID   = 67962
ELEMENT_SET_NO = 999
REV_AT_EPOCH   = 328
BSTAR          = -.76133224E-2
MEAN_MOTION_DOT = -.1612982E-1
MEAN_MOTION_DDOT = 0

CCSDS_OMM_VERS = 2.0
CREATION_DATE  = 
ORIGINATOR     = 

OBJECT_NAME    = STARLINK-36357
OBJECT_ID      = 2026-038C
CENTER_NAME    = EARTH
REF_FRAME      = TEME
TIME_SYSTEM    = UTC
MEAN_ELEMENT_THEORY = SGP/SGP4

EPOCH          = 2026-03-10T06:00:02.000160
MEAN_MOTION    = 15.86057305
ECCENTRICITY   = .0001119
INCLINATION    = 97.2740
RA_OF_ASC_NODE = 79.5634
ARG_OF_PERICENTER = 93.5861
MEAN_ANOMALY   = 269.9718

EPHEMERIS_TYPE = 0
CLASSIFICATION_TYPE = U
NORAD_CAT_ID   = 67963
ELEMENT_SET_NO = 999
REV_AT_EPOCH   = 328
BSTAR          = -.7520658E-2
MEAN_MOTION_DOT = -.1615107E-1
MEAN_MOTION_DDOT = 0

CCSDS_OMM_VERS = 2.0
CREATION_DATE  = 
ORIGINATOR     = 

OBJECT_NAME    = STARLINK-36349
OBJECT_ID      = 2026-038D
CENTER_NAME    = EARTH
REF_FRAME      = TEME
TIME_SYSTEM    = UTC
MEAN_ELEMENT_THEORY = SGP/SGP4

EPOCH          = 2026-03-10T06:00:02.000160
MEAN_MOTION    = 15.85918902
ECCENTRICITY   = .00011714
INCLINATION    = 97.2738
RA_OF_ASC_NODE = 79.5609
ARG_OF_PERICENTER = 79.7860
MEAN_ANOMALY   = 279.2109

EPHEMERIS_TYPE = 0
CLASSIFICATION_TYPE = U
NORAD_CAT_ID   = 67964
ELEMENT_SET_NO = 999
REV_AT_EPOCH   = 328
BSTAR          = -.75766365E-2
MEAN_MOTION_DOT = -.1616085E-1
MEAN_MOTION_DDOT = 0

CCSDS_OMM_VERS = 2.0
CREATION_DATE  = 
ORIGINATOR     = 

OBJECT_NAME    = STARLINK-36806
OBJECT_ID      = 2026-038E
CENTER_NAME    = EARTH
REF_FRAME      = TEME
TIME_SYSTEM    = UTC
MEAN_ELEMENT_THEORY = SGP/SGP4

EPOCH          = 2026-03-10T06:00:02.000160
MEAN_MOTION    = 15.86217442
ECCENTRICITY   = .00011407
INCLINATION    = 97.2730
RA_OF_ASC_NODE = 79.5651
ARG_OF_PERICENTER = 89.7168
MEAN_ANOMALY   = 279.1503

EPHEMERIS_TYPE = 0
CLASSIFICATION_TYPE = U
NORAD_CAT_ID   = 67965
ELEMENT_SET_NO = 999
REV_AT_EPOCH   = 328
BSTAR          = -.74394151E-2
MEAN_MOTION_DOT = -.1610843E-1
MEAN_MOTION_DDOT = 0

CCSDS_OMM_VERS = 2.0
CREATION_DATE  = 
ORIGINATOR     = 

OBJECT_NAME    = STARLINK-36820
OBJECT_ID      = 2026-038F
CENTER_NAME    = EARTH
REF_FRAME      = TEME
TIME_SYSTEM    = UTC
MEAN_ELEMENT_THEORY = SGP/SGP4

EPOCH          = 2026-03-10T06:00:02.000160
MEAN_MOTION    = 15.86352325
ECCENTRICITY   = .00011589
INCLINATION    = 97.2729
RA_OF_ASC_NODE = 79.5671
ARG_OF_PERICENTER = 91.2408
MEAN_ANOMALY   = 282.0572

EPHEMERIS_TYPE = 0
CLASSIFICATION_TYPE = U
NORAD_CAT_ID   = 67966
ELEMENT_SET_NO = 999
REV_AT_EPOCH   = 328
BSTAR          = -.73875496E-2
MEAN_MOTION_DOT = -.1610304E-1
MEAN_MOTION_DDOT = 0

CCSDS_OMM_VERS = 2.0
CREATION_DATE  = 
ORIGINATOR     = 

OBJECT_NAME    = STARLINK-36819
OBJECT_ID      = 2026-038G
CENTER_NAME    = EARTH
REF_FRAME      = TEME
TIME_SYSTEM    = UTC
MEAN_ELEMENT_THEORY = SGP/SGP4

EPOCH          = 2026-03-10T06:00:02.000160
MEAN_MOTION    = 15.86500177
ECCENTRICITY   = .00011328
INCLINATION    = 97.2726
RA_OF_ASC_NODE = 79.5691
ARG_OF_PERICENTER = 88.1068
MEAN_ANOMALY   = 289.9675

EPHEMERIS_TYPE = 0
CLASSIFICATION_TYPE = U
NORAD_CAT_ID   = 67967
ELEMENT_SET_NO = 999
REV_AT_EPOCH   = 328
BSTAR          = -.73315049E-2
MEAN_MOTION_DOT = -.1609766E-1
MEAN_MOTION_DDOT = 0

CCSDS_OMM_VERS = 2.0
CREATION_DATE  = 
ORIGINATOR     = 

OBJECT_NAME    = STARLINK-36812
OBJECT_ID      = 2026-038H
CENTER_NAME    = EARTH
REF_FRAME      = TEME
TIME_SYSTEM    = UTC
MEAN_ELEMENT_THEORY = SGP/SGP4

EPOCH          = 2026-03-10T06:00:02.000160
MEAN_MOTION    = 15.86622757
ECCENTRICITY   = .00011358
INCLINATION    = 97.2721
RA_OF_ASC_NODE = 79.5702
ARG_OF_PERICENTER = 83.1736
MEAN_ANOMALY   = 298.9581

EPHEMERIS_TYPE = 0
CLASSIFICATION_TYPE = U
NORAD_CAT_ID   = 67968
ELEMENT_SET_NO = 999
REV_AT_EPOCH   = 328
BSTAR          = -.72828574E-2
MEAN_MOTION_DOT = -.1608868E-1
MEAN_MOTION_DDOT = 0

CCSDS_OMM_VERS = 2.0
CREATION_DATE  = 
ORIGINATOR     = 

OBJECT_NAME    = STARLINK-36709
OBJECT_ID      = 2026-038J
CENTER_NAME    = EARTH
REF_FRAME      = TEME
TIME_SYSTEM    = UTC
MEAN_ELEMENT_THEORY = SGP/SGP4

EPOCH          = 2026-03-10T06:00:02.000160
MEAN_MOTION    = 15.86916212
ECCENTRICITY   = .00010998
INCLINATION    = 97.2720
RA_OF_ASC_NODE = 79.5747
ARG_OF_PERICENTER = 87.4948
MEAN_ANOMALY   = 304.4351

EPHEMERIS_TYPE = 0
CLASSIFICATION_TYPE = U
NORAD_CAT_ID   = 67969
ELEMENT_SET_NO = 999
REV_AT_EPOCH   = 328
BSTAR          = -.71248373E-2
MEAN_MOTION_DOT = -.1598303E-1
MEAN_MOTION_DDOT = 0

